[{"CCSDS_OMM_VERS":"2.0","COMMENT":"GENERATED VIA SPACE-TRACK.ORG API","CREATION_DATE":"2004-08-15T23:35:47","ORIGINATOR":"18 SPCS","OBJECT_NAME":"OPS 1439 DEB","OBJECT_ID":"1966-009B","CENTER_NAME":"EARTH","REF_FRAME":"TEME","TIME_SYSTEM":"UTC","MEAN_ELEMENT_THEORY":"SGP4","EPOCH":"1966-11-16T01:05:08.906208","MEAN_MOTION":"16.02649087","ECCENTRICITY":"0.00126990","INCLINATION":"82.0134","RA_OF_ASC_NODE":"201.6230","ARG_OF_PERICENTER":"187.6297","MEAN_ANOMALY":"172.4524","EPHEMERIS_TYPE":"0","CLASSIFICATION_TYPE":"U","NORAD_CAT_ID":"2003","ELEMENT_SET_NO":"999","REV_AT_EPOCH":"4279","BSTAR":"0.00000000000000","MEAN_MOTION_DOT":"0.11679543","MEAN_MOTION_DDOT":"0.3295400000000","SEMIMAJOR_AXIS":"6645.227","PERIOD":"89.851","APOAPSIS":"275.530","PERIAPSIS":"258.653","OBJECT_TYPE":"DEBRIS","RCS_SIZE":null,"COUNTRY_CODE":null,"LAUNCH_DATE":null,"SITE":null,"DECAY_DATE":"1966-11-18","FILE":"33914","GP_ID":"8718963","TLE_LINE0":"0 OPS 1439 DEB","TLE_LINE1":"1 02003U 66009  B 66320.04524197  .11679543 +32954-0 +00000-0 0  9994","TLE_LINE2":"2 02003 082.0134 201.6230 0012699 187.6297 172.4524 16.02649087042796"},{"CCSDS_OMM_VERS":"2.0","COMMENT":"GENERATED VIA SPACE-TRACK.ORG API","CREATION_DATE":"2004-08-15T23:35:47","ORIGINATOR":"18 SPCS","OBJECT_NAME":"OPS 1439 DEB","OBJECT_ID":"1966-009C","CENTER_NAME":"EARTH","REF_FRAME":"TEME","TIME_SYSTEM":"UTC","MEAN_ELEMENT_THEORY":"SGP4","EPOCH":"1966-11-16T01:40:17.785919","MEAN_MOTION":"16.04282792","ECCENTRICITY":"0.00151100","INCLINATION":"82.0421","RA_OF_ASC_NODE":"202.7124","ARG_OF_PERICENTER":"172.8123","MEAN_ANOMALY":"187.2992","EPHEMERIS_TYPE":"0","CLASSIFICATION_TYPE":"U","NORAD_CAT_ID":"2004","ELEMENT_SET_NO":"999","REV_AT_EPOCH":"4280","BSTAR":"0.00000000000000","MEAN_MOTION_DOT":"0.02852731","MEAN_MOTION_DDOT":"0.0200990000000","SEMIMAJOR_AXIS":"6640.714","PERIOD":"89.759","APOAPSIS":"272.614","PERIAPSIS":"252.545","OBJECT_TYPE":"DEBRIS","RCS_SIZE":null,"COUNTRY_CODE":null,"LAUNCH_DATE":null,"SITE":null,"DECAY_DATE":"1966-11-18","FILE":"33914","GP_ID":"8718974","TLE_LINE0":"0 OPS 1439 DEB","TLE_LINE1":"1 02004U 66009  C 66320.06965030  .02852731 +20099-1 +00000-0 0  9992","TLE_LINE2":"2 02004 082.0421 202.7124 0015110 172.8123 187.2992 16.04282792042808"},{"CCSDS_OMM_VERS":"2.0","COMMENT":"GENERATED VIA SPACE-TRACK.ORG API","CREATION_DATE":"2004-08-15T23:35:47","ORIGINATOR":"18 SPCS","OBJECT_NAME":"TITAN 2 DEB","OBJECT_ID":"1966-104Q","CENTER_NAME":"EARTH","REF_FRAME":"TEME","TIME_SYSTEM":"UTC","MEAN_ELEMENT_THEORY":"SGP4","EPOCH":"1966-11-16T08:02:53.778623","MEAN_MOTION":"16.33296855","ECCENTRICITY":"0.01462930","INCLINATION":"29.0464","RA_OF_ASC_NODE":"142.3663","ARG_OF_PERICENTER":"208.9040","MEAN_ANOMALY":"150.3237","EPHEMERIS_TYPE":"0","CLASSIFICATION_TYPE":"U","NORAD_CAT_ID":"2597","ELEMENT_SET_NO":"999","REV_AT_EPOCH":"73","BSTAR":"0.00000000000000","MEAN_MOTION_DOT":"0.02491670","MEAN_MOTION_DDOT":"0.0872410000000","SEMIMAJOR_AXIS":"6561.835","PERIOD":"88.165","APOAPSIS":"279.696","PERIAPSIS":"87.705","OBJECT_TYPE":"DEBRIS","RCS_SIZE":null,"COUNTRY_CODE":null,"LAUNCH_DATE":null,"SITE":null,"DECAY_DATE":"1966-11-18","FILE":"33914","GP_ID":"8721645","TLE_LINE0":"0 TITAN 2 DEB","TLE_LINE1":"1 02597U 66104  Q 66320.33534466  .02491670 +87241-1 +00000-0 0  9993","TLE_LINE2":"2 02597 029.0464 142.3663 0146293 208.9040 150.3237 16.33296855000732"},{"CCSDS_OMM_VERS":"2.0","COMMENT":"GENERATED VIA SPACE-TRACK.ORG API","CREATION_DATE":"2004-08-15T23:35:47","ORIGINATOR":"18 SPCS","OBJECT_NAME":"TITAN 2 DEB","OBJECT_ID":"1966-104P","CENTER_NAME":"EARTH","REF_FRAME":"TEME","TIME_SYSTEM":"UTC","MEAN_ELEMENT_THEORY":"SGP4","EPOCH":"1966-11-16T11:03:51.993215","MEAN_MOTION":"16.10827229","ECCENTRICITY":"0.01437470","INCLINATION":"29.0465","RA_OF_ASC_NODE":"141.4339","ARG_OF_PERICENTER":"210.4087","MEAN_ANOMALY":"148.7940","EPHEMERIS_TYPE":"0","CLASSIFICATION_TYPE":"U","NORAD_CAT_ID":"2596","ELEMENT_SET_NO":"999","REV_AT_EPOCH":"75","BSTAR":"0.00000000000000","MEAN_MOTION_DOT":"0.00000000","MEAN_MOTION_DDOT":"0.0000000000000","SEMIMAJOR_AXIS":"6622.716","PERIOD":"89.395","APOAPSIS":"339.780","PERIAPSIS":"149.381","OBJECT_TYPE":"DEBRIS","RCS_SIZE":null,"COUNTRY_CODE":null,"LAUNCH_DATE":null,"SITE":null,"DECAY_DATE":"1966-11-18","FILE":"33914","GP_ID":"8721644","TLE_LINE0":"0 TITAN 2 DEB","TLE_LINE1":"1 02596U 66104  P 66320.46101844  .00000000 +00000-0 +00000-0 0  9994","TLE_LINE2":"2 02596 029.0465 141.4339 0143747 210.4087 148.7940 16.10827229000756"},{"CCSDS_OMM_VERS":"2.0","COMMENT":"GENERATED VIA SPACE-TRACK.ORG API","CREATION_DATE":"2004-08-15T23:35:47","ORIGINATOR":"18 SPCS","OBJECT_NAME":"TITAN 2 DEB","OBJECT_ID":"1966-104L","CENTER_NAME":"EARTH","REF_FRAME":"TEME","TIME_SYSTEM":"UTC","MEAN_ELEMENT_THEORY":"SGP4","EPOCH":"1966-11-16T11:08:41.682047","MEAN_MOTION":"16.10851730","ECCENTRICITY":"0.00096400","INCLINATION":"28.8314","RA_OF_ASC_NODE":"143.3989","ARG_OF_PERICENTER":"308.3688","MEAN_ANOMALY":"51.5987","EPHEMERIS_TYPE":"0","CLASSIFICATION_TYPE":"U","NORAD_CAT_ID":"2593","ELEMENT_SET_NO":"999","REV_AT_EPOCH":"75","BSTAR":"0.00000000000000","MEAN_MOTION_DOT":"0.10843317","MEAN_MOTION_DDOT":"0.3204200000000","SEMIMAJOR_AXIS":"6622.649","PERIOD":"89.393","APOAPSIS":"250.898","PERIAPSIS":"238.129","OBJECT_TYPE":"DEBRIS","RCS_SIZE":null,"COUNTRY_CODE":null,"LAUNCH_DATE":null,"SITE":null,"DECAY_DATE":"1966-11-18","FILE":"33914","GP_ID":"8721639","TLE_LINE0":"0 TITAN 2 DEB","TLE_LINE1":"1 02593U 66104  L 66320.46437132  .10843317 +32042-0 +00000-0 0  9991","TLE_LINE2":"2 02593 028.8314 143.3989 0009640 308.3688 051.5987 16.10851730000758"},{"CCSDS_OMM_VERS":"2.0","COMMENT":"GENERATED VIA SPACE-TRACK.ORG API","CREATION_DATE":"2004-08-15T23:35:47","ORIGINATOR":"18 SPCS","OBJECT_NAME":"TITAN 2 DEB","OBJECT_ID":"1966-104K","CENTER_NAME":"EARTH","REF_FRAME":"TEME","TIME_SYSTEM":"UTC","MEAN_ELEMENT_THEORY":"SGP4","EPOCH":"1966-11-16T11:09:08.955072","MEAN_MOTION":"16.09640132","ECCENTRICITY":"0.00057880","INCLINATION":"28.8407","RA_OF_ASC_NODE":"143.4509","ARG_OF_PERICENTER":"308.3790","MEAN_ANOMALY":"51.3911","EPHEMERIS_TYPE":"0","CLASSIFICATION_TYPE":"U","NORAD_CAT_ID":"2592","ELEMENT_SET_NO":"999","REV_AT_EPOCH":"75","BSTAR":"0.00000000000000","MEAN_MOTION_DOT":"0.09508034","MEAN_MOTION_DDOT":"0.2416400000000","SEMIMAJOR_AXIS":"6625.971","PERIOD":"89.460","APOAPSIS":"251.672","PERIAPSIS":"244.001","OBJECT_TYPE":"DEBRIS","RCS_SIZE":null,"COUNTRY_CODE":null,"LAUNCH_DATE":null,"SITE":null,"DECAY_DATE":"1966-11-18","FILE":"33914","GP_ID":"8721638","TLE_LINE0":"0 TITAN 2 DEB","TLE_LINE1":"1 02592U 66104  K 66320.46468698  .09508034 +24164-0 +00000-0 0  9999","TLE_LINE2":"2 02592 028.8407 143.4509 0005788 308.3790 051.3911 16.09640132000757"},{"CCSDS_OMM_VERS":"2.0","COMMENT":"GENERATED VIA SPACE-TRACK.ORG API","CREATION_DATE":"2004-08-15T23:35:47","ORIGINATOR":"18 SPCS","OBJECT_NAME":"TITAN 2 DEB","OBJECT_ID":"1966-104J","CENTER_NAME":"EARTH","REF_FRAME":"TEME","TIME_SYSTEM":"UTC","MEAN_ELEMENT_THEORY":"SGP4","EPOCH":"1966-11-16T11:09:54.645120","MEAN_MOTION":"16.10912284","ECCENTRICITY":"0.00293010","INCLINATION":"28.8690","RA_OF_ASC_NODE":"143.5140","ARG_OF_PERICENTER":"338.7780","MEAN_ANOMALY":"21.1536","EPHEMERIS_TYPE":"0","CLASSIFICATION_TYPE":"U","NORAD_CAT_ID":"2591","ELEMENT_SET_NO":"999","REV_AT_EPOCH":"75","BSTAR":"0.00000000000000","MEAN_MOTION_DOT":"0.28733307","MEAN_MOTION_DDOT":"2.2534000000000","SEMIMAJOR_AXIS":"6622.483","PERIOD":"89.390","APOAPSIS":"263.752","PERIAPSIS":"224.943","OBJECT_TYPE":"DEBRIS","RCS_SIZE":null,"COUNTRY_CODE":null,"LAUNCH_DATE":null,"SITE":null,"DECAY_DATE":"1966-11-18","FILE":"33914","GP_ID":"8721637","TLE_LINE0":"0 TITAN 2 DEB","TLE_LINE1":"1 02591U 66104  J 66320.46521580  .28733307 +2253401 +00000-0 0  9991","TLE_LINE2":"2 02591 028.8690 143.5140 0029301 338.7780 021.1536 16.10912284000755"},{"CCSDS_OMM_VERS":"2.0","COMMENT":"GENERATED VIA SPACE-TRACK.ORG API","CREATION_DATE":"2004-08-15T23:35:47","ORIGINATOR":"18 SPCS","OBJECT_NAME":"TITAN 2 DEB","OBJECT_ID":"1966-104H","CENTER_NAME":"EARTH","REF_FRAME":"TEME","TIME_SYSTEM":"UTC","MEAN_ELEMENT_THEORY":"SGP4","EPOCH":"1966-11-17T08:07:41.715263","MEAN_MOTION":"16.00649188","ECCENTRICITY":"0.00254240","INCLINATION":"28.8517","RA_OF_ASC_NODE":"136.7173","ARG_OF_PERICENTER":"247.8864","MEAN_ANOMALY":"111.8492","EPHEMERIS_TYPE":"0","CLASSIFICATION_TYPE":"U","NORAD_CAT_ID":"2590","ELEMENT_SET_NO":"999","REV_AT_EPOCH":"89","BSTAR":"0.00000000000000","MEAN_MOTION_DOT":"0.00052776","MEAN_MOTION_DDOT":"0.0000065535000","SEMIMAJOR_AXIS":"6650.761","PERIOD":"89.963","APOAPSIS":"289.534","PERIAPSIS":"255.717","OBJECT_TYPE":"DEBRIS","RCS_SIZE":null,"COUNTRY_CODE":null,"LAUNCH_DATE":null,"SITE":null,"DECAY_DATE":"1966-11-18","FILE":"33914","GP_ID":"8721636","TLE_LINE0":"0 TITAN 2 DEB","TLE_LINE1":"1 02590U 66104  H 66321.33867726  .00052776 +65535-5 +00000-0 0  9999","TLE_LINE2":"2 02590 028.8517 136.7173 0025424 247.8864 111.8492 16.00649188000899"}]